{"type": "FeatureCollection", "features": [{"type": "Feature", "properties": {"name": "Article 4 area 1 (2022 legacy)", "reference": "LEGACY-1", "start-date": "2022-08-01", "notes": "Recovered from the original repo shapefile (pre-2023). Covers the commercial/business/service to residential direction only."}, "geometry": {"type": "Polygon", "coordinates": [[[-0.3083663, 51.4124354, 0.0], [-0.3083521, 51.4137157, 0.0], [-0.3082212, 51.4148275, 0.0], [-0.3079969, 51.4157717, 0.0], [-0.3077119, 51.416529, 0.0], [-0.3062458, 51.4164127, 0.0], [-0.3043864, 51.4163534, 0.0], [-0.3037233, 51.41654, 0.0], [-0.3034636, 51.4160123, 0.0], [-0.3025587, 51.4162653, 0.0], [-0.3017353, 51.4164724, 0.0], [-0.301415, 51.416501, 0.0], [-0.301383, 51.4164091, 0.0], [-0.3009571, 51.416536, 0.0], [-0.3006915, 51.4161662, 0.0], [-0.3008844, 51.4161052, 0.0], [-0.3007789, 51.4158403, 0.0], [-0.3003634, 51.4152106, 0.0], [-0.3005958, 51.4151613, 0.0], [-0.3003733, 51.4145842, 0.0], [-0.3002614, 51.4143747, 0.0], [-0.3001159, 51.4138764, 0.0], [-0.3000293, 51.4137005, 0.0], [-0.3000462, 51.4131241, 0.0], [-0.3003018, 51.4131377, 0.0], [-0.3002939, 51.4127653, 0.0], [-0.2988684, 51.4126837, 0.0], [-0.2978405, 51.4126756, 0.0], [-0.2968104, 51.4127283, 0.0], [-0.2960284, 51.4128049, 0.0], [-0.296087, 51.4126619, 0.0], [-0.2962852, 51.4122213, 0.0], [-0.2965201, 51.4121822, 0.0], [-0.2964115, 51.4120429, 0.0], [-0.2964493, 51.4118605, 0.0], [-0.2965235, 51.4116537, 0.0], [-0.2966614, 51.4109852, 0.0], [-0.2969901, 51.4107127, 0.0], [-0.2971382, 51.4106413, 0.0], [-0.297591, 51.4105699, 0.0], [-0.2984166, 51.4105342, 0.0], [-0.2982263, 51.4100637, 0.0], [-0.2981393, 51.4097938, 0.0], [-0.298123, 51.4091136, 0.0], [-0.3005661, 51.409162, 0.0], [-0.3009031, 51.4092062, 0.0], [-0.3013724, 51.4087144, 0.0], [-0.3016563, 51.408401, 0.0], [-0.3018996, 51.4081135, 0.0], [-0.3020801, 51.4080647, 0.0], [-0.3022525, 51.4080069, 0.0], [-0.3025243, 51.4079434, 0.0], [-0.3028749, 51.4078988, 0.0], [-0.3033865, 51.4077944, 0.0], [-0.3035861, 51.4076728, 0.0], [-0.3036956, 51.4074665, 0.0], [-0.3037768, 51.4073096, 0.0], [-0.3035018, 51.4071948, 0.0], [-0.3033736, 51.4070654, 0.0], [-0.3032557, 51.4068974, 0.0], [-0.3030707, 51.4067478, 0.0], [-0.3030927, 51.4065125, 0.0], [-0.3031765, 51.406522, 0.0], [-0.3032267, 51.4061263, 0.0], [-0.303354, 51.4060394, 0.0], [-0.3034629, 51.4058497, 0.0], [-0.3035573, 51.4056959, 0.0], [-0.3036505, 51.4053313, 0.0], [-0.3036836, 51.404916, 0.0], [-0.3036814, 51.4047357, 0.0], [-0.3038072, 51.4045712, 0.0], [-0.3034359, 51.4044245, 0.0], [-0.3030009, 51.4040828, 0.0], [-0.3027019, 51.403779, 0.0], [-0.3021327, 51.403233, 0.0], [-0.3020875, 51.4031353, 0.0], [-0.3019488, 51.4018554, 0.0], [-0.3019309, 51.4017387, 0.0], [-0.3023872, 51.4017453, 0.0], [-0.3027062, 51.4017471, 0.0], [-0.302829, 51.4017822, 0.0], [-0.3029376, 51.401842, 0.0], [-0.3032202, 51.4021094, 0.0], [-0.303794, 51.4024116, 0.0], [-0.3041323, 51.4026133, 0.0], [-0.3044112, 51.4027393, 0.0], [-0.3043679, 51.4034317, 0.0], [-0.3049601, 51.4034791, 0.0], [-0.3049407, 51.4037616, 0.0], [-0.305352, 51.4037869, 0.0], [-0.3052765, 51.4042709, 0.0], [-0.3062313, 51.4043402, 0.0], [-0.3060225, 51.4055513, 0.0], [-0.3062462, 51.4058567, 0.0], [-0.3064996, 51.4063456, 0.0], [-0.3073274, 51.4063436, 0.0], [-0.3085188, 51.4064876, 0.0], [-0.3089742, 51.4074731, 0.0], [-0.3087604, 51.4107061, 0.0], [-0.3083663, 51.4124354, 0.0]]]}}, {"type": "Feature", "properties": {"name": "Article 4 area 2 (2022 legacy)", "reference": "LEGACY-2", "start-date": "2022-08-01", "notes": "Recovered from the original repo shapefile (pre-2023). Covers the commercial/business/service to residential direction only."}, "geometry": {"type": "Polygon", "coordinates": [[[-0.3104039, 51.3912734, 0.0], [-0.3113662, 51.3917106, 0.0], [-0.311939, 51.3920425, 0.0], [-0.312265, 51.3918172, 0.0], [-0.3134671, 51.3925927, 0.0], [-0.3139684, 51.3930432, 0.0], [-0.3137988, 51.3933683, 0.0], [-0.3137561, 51.3934423, 0.0], [-0.3132494, 51.3930534, 0.0], [-0.3127007, 51.392761, 0.0], [-0.3122059, 51.3932333, 0.0], [-0.3110459, 51.3927414, 0.0], [-0.3103267, 51.3924448, 0.0], [-0.3105174, 51.3922892, 0.0], [-0.3090249, 51.3915733, 0.0], [-0.3089287, 51.3916754, 0.0], [-0.3090958, 51.3917631, 0.0], [-0.3089455, 51.3918797, 0.0], [-0.3087782, 51.3917951, 0.0], [-0.308095, 51.3923699, 0.0], [-0.3078665, 51.3924946, 0.0], [-0.3075214, 51.3922155, 0.0], [-0.3071293, 51.39242, 0.0], [-0.3077517, 51.392834, 0.0], [-0.3065876, 51.3933776, 0.0], [-0.3061513, 51.3935936, 0.0], [-0.3062139, 51.3936128, 0.0], [-0.3059841, 51.3939018, 0.0], [-0.3058338, 51.3940184, 0.0], [-0.3061787, 51.3943005, 0.0], [-0.3047811, 51.3947067, 0.0], [-0.3046625, 51.3944918, 0.0], [-0.3042536, 51.394492, 0.0], [-0.3035684, 51.3944577, 0.0], [-0.3036491, 51.3941178, 0.0], [-0.3028043, 51.3940568, 0.0], [-0.3028474, 51.3938138, 0.0], [-0.3020149, 51.3942098, 0.0], [-0.3015083, 51.3936908, 0.0], [-0.3039056, 51.3927795, 0.0], [-0.3044736, 51.3928472, 0.0], [-0.3064713, 51.3921289, 0.0], [-0.306557, 51.3917843, 0.0], [-0.3085299, 51.3908165, 0.0], [-0.3087504, 51.3909609, 0.0], [-0.309271, 51.3907008, 0.0], [-0.3097242, 51.390959, 0.0], [-0.3104039, 51.3912734, 0.0]]]}}, {"type": "Feature", "properties": {"name": "Article 4 area 3 (2022 legacy)", "reference": "LEGACY-3", "start-date": "2022-08-01", "notes": "Recovered from the original repo shapefile (pre-2023). Covers the commercial/business/service to residential direction only."}, "geometry": {"type": "Polygon", "coordinates": [[[-0.2557815, 51.3981722, 0.0], [-0.2561667, 51.3979008, 0.0], [-0.2568066, 51.3980664, 0.0], [-0.2563821, 51.3986029, 0.0], [-0.2565238, 51.3995641, 0.0], [-0.2565643, 51.4000629, 0.0], [-0.2563708, 51.4001493, 0.0], [-0.2566311, 51.4011197, 0.0], [-0.2569791, 51.4019725, 0.0], [-0.2572167, 51.4019761, 0.0], [-0.257329, 51.4024611, 0.0], [-0.2574903, 51.4029096, 0.0], [-0.2582914, 51.4027876, 0.0], [-0.258402, 51.4033172, 0.0], [-0.2575503, 51.4035202, 0.0], [-0.2577455, 51.4040138, 0.0], [-0.2580078, 51.40462, 0.0], [-0.2582602, 51.4054862, 0.0], [-0.2587495, 51.4073152, 0.0], [-0.2580204, 51.4074159, 0.0], [-0.2577685, 51.4064801, 0.0], [-0.2571796, 51.4067045, 0.0], [-0.2566143, 51.4050008, 0.0], [-0.2562267, 51.4039392, 0.0], [-0.2558018, 51.4038585, 0.0], [-0.2553704, 51.4039487, 0.0], [-0.2550966, 51.403335, 0.0], [-0.2548541, 51.4028332, 0.0], [-0.2555144, 51.4026646, 0.0], [-0.2552572, 51.4016123, 0.0], [-0.2556289, 51.4015286, 0.0], [-0.2554764, 51.4008497, 0.0], [-0.2552057, 51.4007788, 0.0], [-0.2550589, 51.4002636, 0.0], [-0.2509121, 51.4008412, 0.0], [-0.2506143, 51.4002345, 0.0], [-0.2503864, 51.3993537, 0.0], [-0.2523398, 51.399249, 0.0], [-0.2545294, 51.399185, 0.0], [-0.254545, 51.3987763, 0.0], [-0.2541159, 51.398807, 0.0], [-0.2540494, 51.3980551, 0.0], [-0.2553242, 51.3979774, 0.0], [-0.2554074, 51.3982909, 0.0], [-0.2555587, 51.3982694, 0.0], [-0.2557815, 51.3981722, 0.0]]]}}, {"type": "Feature", "properties": {"name": "Article 4 area 4 (2022 legacy)", "reference": "LEGACY-4", "start-date": "2022-08-01", "notes": "Recovered from the original repo shapefile (pre-2023). Covers the commercial/business/service to residential direction only."}, "geometry": {"type": "Polygon", "coordinates": [[[-0.2811278, 51.3795364, 0.0], [-0.2812002, 51.3794328, 0.0], [-0.2812256, 51.3789573, 0.0], [-0.2814038, 51.3786649, 0.0], [-0.2818234, 51.3788328, 0.0], [-0.2818745, 51.3792952, 0.0], [-0.282014, 51.3796303, 0.0], [-0.2827321, 51.3803546, 0.0], [-0.2831607, 51.3806893, 0.0], [-0.2838946, 51.3811949, 0.0], [-0.2841284, 51.3810413, 0.0], [-0.2842433, 51.3812238, 0.0], [-0.2850437, 51.3815782, 0.0], [-0.2862406, 51.3819321, 0.0], [-0.2874476, 51.3821653, 0.0], [-0.2879618, 51.3822442, 0.0], [-0.2884076, 51.3821175, 0.0], [-0.2886017, 51.3822155, 0.0], [-0.2895883, 51.3824726, 0.0], [-0.2888566, 51.3833328, 0.0], [-0.2858071, 51.3825173, 0.0], [-0.2847892, 51.3822835, 0.0], [-0.2842733, 51.3820475, 0.0], [-0.2839898, 51.3822063, 0.0], [-0.282241, 51.3822625, 0.0], [-0.2818834, 51.3822944, 0.0], [-0.2818327, 51.3820942, 0.0], [-0.2810885, 51.3812931, 0.0], [-0.2800441, 51.3802027, 0.0], [-0.280008, 51.3801261, 0.0], [-0.280204, 51.3799614, 0.0], [-0.2803598, 51.3798297, 0.0], [-0.280687, 51.37967, 0.0], [-0.2809957, 51.3796276, 0.0], [-0.2811012, 51.3796548, 0.0], [-0.2812015, 51.3795994, 0.0], [-0.2811278, 51.3795364, 0.0]]]}}]}